format  = 'OEF1.1'       ! file format
rectype = 'ML'           ! record type (1L/ML)
refsys  = ECLM J2000     ! default reference system
END_OF_HEADER
1620
! Equinoctial elements: a, e*sin(LP), e*cos(LP), tan(i/2)*sin(LN), tan(i/2)*cos(LN), mean long.
 EQU   1.24549502352370E+00  -0.322647057023601  -0.091899934445489   -0.045040505340697    0.107926225609058  44.7496488022842
 MJD     51265.490654874 TDT
 MAG  15.167  0.150
! RMS    6.61384E-10   8.55571E-09   1.54139E-08   1.29931E-08   2.51535E-08   1.05072E-06
! EIG   7.01532E-11   6.62671E-10   4.73225E-09   1.41837E-08   1.99222E-08   2.87773E-08
! WEA   0.00662   0.12595   0.22278   0.38248  -0.84361   0.27657
 COV   4.374290654340239E-19  4.421964868359730E-18  7.979889089906726E-18
 COV  -8.622209423559409E-19 -4.879419921933222E-18 -1.324025871924055E-16
 COV   7.320012830151436E-17  1.268447019325163E-16 -8.834593975532030E-18
 COV  -6.058339924503506E-17  3.950414826480385E-15  2.375886987834151E-16
 COV  -3.213943861417342E-18 -1.008946189104323E-16  6.555845541998615E-15
 COV   1.688207004671060E-16 -2.830218918606222E-16  3.159345790109680E-15
 COV   6.326962777904111E-16 -5.486211477040957E-15  1.104007852491179E-12
 NOR   2.026984855916382E+20 -7.262293635273831E+18 -4.278125257074413E+18
 NOR   2.225938263765343E+18  1.862775280981109E+18  7.858700914606691E+16
 NOR   1.909018409296255E+18 -5.153769122773376E+17  5.947365178181857E+17
 NOR   2.671512783526995E+17 -5.015869727248705E+15  3.694022863083851E+17
 NOR  -3.105822509624907E+17 -1.694402381381734E+17 -8.157322783851640E+14
 NOR   3.367083461051322E+17  1.742114943584569E+17 -1.146945676910983E+14
 NOR   9.456103165797851E+16  2.450067639808601E+14  3.466843367400711E+13
